NORAD_CAT_ID,OBJECT_NAME,OBJECT_TYPE,EPOCH,MEAN_MOTION,ECCENTRICITY,INCLINATION,RA_OF_ASC_NODE,ARG_OF_PERICENTER,MEAN_ANOMALY,BSTAR,MEAN_MOTION_DOT,MEAN_MOTION_DDOT,TLE_LINE0,TLE_LINE1,TLE_LINE2,SEMIMAJOR_AXIS,PERIOD,APOGEE,PERIGEE,DECAYED
52999.0,STARLINK-4217,PAYLOAD,2023-05-30 11:21:01,15.08830399,0.0001213,53.218,327.1155,90.9502,269.1629,0.00015748,2.219e-05,0.0,0 STARLINK-4217,1 52999U 22076P   23150.47293682  .00002219  00000-0  15748-3 0  9995,2 52999  53.2180 327.1155 0001213  90.9502 269.1629 15.08830399 49735,6917.91,95.438,540.614,538.936,0.0
52999.0,STARLINK-4217,PAYLOAD,2023-05-30 19:17:56,15.08844522,0.0001094,53.2179,325.6288,89.2608,270.851,9.2532e-05,1.185e-05,0.0,0 STARLINK-4217,1 52999U 22076P   23150.80412932  .00001185  00000-0  92532-4 0  9991,2 52999  53.2179 325.6288 0001094  89.2608 270.8510 15.08844522 49784,6917.867,95.437,540.488,538.975,0.0
52999.0,STARLINK-4217,PAYLOAD,2023-05-31 04:50:15,15.08844778,0.0001067,53.2178,323.8446,89.0053,271.1061,5.5258e-05,5.92e-06,0.0,0 STARLINK-4217,1 52999U 22076P   23151.20156987  .00000592  00000-0  55258-4 0  9996,2 52999  53.2178 323.8446 0001067  89.0053 271.1061 15.08844778 50310,6917.866,95.437,540.469,538.993,0.0
52999.0,STARLINK-4217,PAYLOAD,2023-05-31 20:44:06,15.0884822,0.0001151,53.2178,320.8708,88.1623,271.9501,0.00014925,2.089e-05,0.0,0 STARLINK-4217,1 52999U 22076P   23151.86396669  .00002089  00000-0  14925-3 0  9999,2 52999  53.2178 320.8708 0001151  88.1623 271.9501 15.08848220 49945,6917.855,95.437,540.517,538.924,0.0
52999.0,STARLINK-4217,PAYLOAD,2023-06-01 04:41:02,15.08844236,0.000111,53.2178,319.3827,93.6251,266.4868,6.9127e-05,8.13e-06,0.0,0 STARLINK-4217,1 52999U 22076P   23152.19517013  .00000813  00000-0  69127-4 0  9992,2 52999  53.2178 319.3827 0001110  93.6251 266.4868 15.08844236 49996,6917.867,95.437,540.5,538.965,0.0
52999.0,STARLINK-4217,PAYLOAD,2023-06-02 10:53:22,15.08836801,0.0001041,53.2176,313.735,95.0893,265.0218,2.7131e-05,1.44e-06,0.0,0 STARLINK-4217,1 52999U 22076P   23153.45373585  .00000144  00000-0  27131-4 0  9992,2 52999  53.2176 313.7350 0001041  95.0893 265.0218 15.08836801 50652,6917.89,95.438,540.475,539.035,0.0
52999.0,STARLINK-4217,PAYLOAD,2023-06-02 14:04:09,15.08837117,0.0001096,53.2175,313.1397,97.5742,262.5375,2.7215e-05,1.45e-06,0.0,0 STARLINK-4217,1 52999U 22076P   23153.58621643  .00000145  00000-0  27215-4 0  9991,2 52999  53.2175 313.1397 0001096  97.5742 262.5375 15.08837117 50204,6917.889,95.438,540.512,538.996,0.0
52999.0,STARLINK-4217,PAYLOAD,2023-06-02 17:14:55,15.08835924,9.78e-05,53.2172,312.5476,78.0836,282.0265,4.2784e-05,3.93e-06,0.0,0 STARLINK-4217,1 52999U 22076P   23153.71869719  .00000393  00000-0  42784-4 0  9997,2 52999  53.2172 312.5476 0000978  78.0836 282.0265 15.08835924 50229,6917.893,95.438,540.434,539.081,0.0
52999.0,STARLINK-4217,PAYLOAD,2023-06-03 13:54:56,15.08837478,0.0001053,53.2172,308.6811,84.3361,275.7752,7.2328e-05,8.63e-06,0.0,0 STARLINK-4217,1 52999U 22076P   23154.57981658  .00000863  00000-0  72328-4 0  9998,2 52999  53.2172 308.6811 0001053  84.3361 275.7752 15.08837478 50356,6917.888,95.438,540.482,539.025,0.0
52999.0,STARLINK-4217,PAYLOAD,2023-06-03 17:05:42,15.08840943,0.0001056,53.2173,308.086,88.0573,272.054,8.6204e-05,1.084e-05,0.0,0 STARLINK-4217,1 52999U 22076P   23154.71229408  .00001084  00000-0  86204-4 0  9996,2 52999  53.2173 308.0860 0001056  88.0573 272.0540 15.08840943 50844,6917.878,95.437,540.473,539.012,0.0
52999.0,STARLINK-4217,PAYLOAD,2023-06-04 10:34:57,15.08828539,0.0001174,53.2173,304.8144,82.6192,277.4933,0.00013501,1.861e-05,0.0,0 STARLINK-4217,1 52999U 22076P   23155.44094289  .00001861  00000-0  13501-3 0  9996,2 52999  53.2173 304.8144 0001174  82.6192 277.4933 15.08828539 50955,6917.915,95.438,540.593,538.968,0.0
52999.0,STARLINK-4217,PAYLOAD,2023-06-04 13:45:43,15.08832612,0.0001122,53.2172,304.2197,81.1591,278.9529,8.2948e-05,1.032e-05,0.0,0 STARLINK-4217,1 52999U 22076P   23155.57342191  .00001032  00000-0  82948-4 0  9990,2 52999  53.2172 304.2197 0001122  81.1591 278.9529 15.08832612 50501,6917.903,95.438,540.544,538.992,0.0
52999.0,STARLINK-4217,PAYLOAD,2023-06-04 16:56:29,15.08837948,0.0001117,53.2174,303.6252,75.6398,284.4718,0.00010762,1.425e-05,0.0,0 STARLINK-4217,1 52999U 22076P   23155.70589847  .00001425  00000-0  10762-3 0  9996,2 52999  53.2174 303.6252 0001117  75.6398 284.4718 15.08837948 50997,6917.887,95.438,540.524,538.979,0.0
52999.0,STARLINK-4217,PAYLOAD,2023-06-05 13:36:30,15.08842265,0.0001068,53.2174,299.7591,94.569,265.5424,8.4165e-05,1.052e-05,0.0,0 STARLINK-4217,1 52999U 22076P   23156.56701651  .00001052  00000-0  84165-4 0  9995,2 52999  53.2174 299.7591 0001068  94.5690 265.5424 15.08842265 50653,6917.873,95.437,540.477,539.0,0.0
52999.0,STARLINK-4217,PAYLOAD,2023-06-05 15:11:53,15.08844134,0.0001153,53.2174,299.462,96.8977,263.2146,9.1744e-05,1.173e-05,0.0,0 STARLINK-4217,1 52999U 22076P   23156.63325513  .00001173  00000-0  91744-4 0  9997,2 52999  53.2174 299.4620 0001153  96.8977 263.2146 15.08844134 50665,6917.868,95.437,540.53,538.935,0.0
52999.0,STARLINK-4217,PAYLOAD,2023-06-06 02:19:35,15.08846021,0.0001029,53.2174,297.3805,86.6116,273.4994,4.6491e-05,4.52e-06,0.0,0 STARLINK-4217,1 52999U 22076P   23157.09693442  .00000452  00000-0  46491-4 0  9995,2 52999  53.2174 297.3805 0001029  86.6116 273.4994 15.08846021 51203,6917.862,95.437,540.439,539.015,0.0
52999.0,STARLINK-4217,PAYLOAD,2023-06-06 11:51:54,15.08830117,0.0001015,53.2175,295.5963,86.3985,273.7123,5.1432e-05,5.31e-06,0.0,0 STARLINK-4217,1 52999U 22076P   23157.49438557  .00000531  00000-0  51432-4 0  9992,2 52999  53.2175 295.5963 0001015  86.3985 273.7123 15.08830117 50794,6917.911,95.438,540.478,539.073,0.0
52999.0,STARLINK-4217,PAYLOAD,2023-06-06 16:38:03,15.08838671,0.0001068,53.2174,294.7044,83.6484,276.4629,7.518e-05,9.09e-06,0.0,0 STARLINK-4217,1 52999U 22076P   23157.69309983  .00000909  00000-0  75180-4 0  9999,2 52999  53.2174 294.7044 0001068  83.6484 276.4629 15.08838671 51296,6917.884,95.438,540.488,539.011,0.0
52999.0,STARLINK-4217,PAYLOAD,2023-06-07 03:45:46,15.08828616,0.0001037,53.2175,292.6231,96.3499,263.7611,-3.9673e-05,-9.19e-06,0.0,0 STARLINK-4217,1 52999U 22076P   23158.15679089 -.00000919  00000-0 -39673-4 0  9998,2 52999  53.2175 292.6231 0001037  96.3499 263.7611 15.08828616 51361,6917.915,95.438,540.498,539.063,0.0
52999.0,STARLINK-4217,PAYLOAD,2023-06-07 11:42:42,15.08826392,9.87e-05,53.2173,291.1365,94.0602,266.0503,-6.1639e-05,-1.268e-05,0.0,0 STARLINK-4217,1 52999U 22076P   23158.48799548 -.00001268  00000-0 -61639-4 0  9992,2 52999  53.2173 291.1365 0000987  94.0602 266.0503 15.08826392 50943,6917.922,95.438,540.47,539.104,0.0
52999.0,STARLINK-4217,PAYLOAD,2023-06-07 19:39:38,15.08835545,9.34e-05,53.2175,289.6497,87.001,273.1088,-6.3438e-06,-3.89e-06,0.0,0 STARLINK-4217,1 52999U 22076P   23158.81919017 -.00000389  00000-0 -63438-5 0  9997,2 52999  53.2175 289.6497 0000934  87.0010 273.1088 15.08835545 50992,6917.894,95.438,540.405,539.113,0.0
52999.0,STARLINK-4217,PAYLOAD,2023-06-08 02:01:10,15.08840487,9.73e-05,53.2175,288.4602,89.7541,270.3562,5.215e-05,5.42e-06,0.0,0 STARLINK-4217,1 52999U 22076P   23159.08414585  .00000542  00000-0  52150-4 0  9994,2 52999  53.2175 288.4602 0000973  89.7541 270.3562 15.08840487 51503,6917.879,95.438,540.417,539.071,0.0
52999.0,STARLINK-4217,PAYLOAD,2023-06-08 14:44:14,15.0885015,9.33e-05,53.2175,286.0812,86.7596,273.3503,0.00024595,3.63e-05,0.0,0 STARLINK-4217,1 52999U 22076P   23159.61405593  .00003630  00000-0  24595-3 0  9994,2 52999  53.2175 286.0812 0000933  86.7596 273.3503 15.08850150 51116,6917.849,95.437,540.36,539.069,0.0
52999.0,STARLINK-4217,PAYLOAD,2023-06-08 21:05:46,15.08865286,0.0001043,53.2172,284.8913,86.5553,273.5558,0.00027841,4.149e-05,0.0,0 STARLINK-4217,1 52999U 22076P   23159.87900489  .00004149  00000-0  27841-3 0  9999,2 52999  53.2172 284.8913 0001043  86.5553 273.5558 15.08865286 51629,6917.803,95.436,540.39,538.947,0.0
52999.0,STARLINK-4217,PAYLOAD,2023-06-09 08:13:29,15.08840095,9.41e-05,53.2164,282.8103,89.7513,270.3587,0.00024243,3.573e-05,0.0,0 STARLINK-4217,1 52999U 22076P   23160.34270760  .00003573  00000-0  24243-3 0  9998,2 52999  53.2164 282.8103 0000941  89.7513 270.3587 15.08840095 51691,6917.88,95.438,540.396,539.094,0.0
52999.0,STARLINK-4217,PAYLOAD,2023-06-09 14:35:01,15.0885312,0.0001078,53.216,281.621,85.222,274.8895,0.00029365,4.39e-05,0.0,0 STARLINK-4217,1 52999U 22076P   23160.60766192  .00004390  00000-0  29365-3 0  9994,2 52999  53.2160 281.6210 0001078  85.2220 274.8895 15.08853120 51268,6917.84,95.437,540.451,538.96,0.0
52999.0,STARLINK-4217,PAYLOAD,2023-06-10 09:39:39,15.08845815,0.000116,53.2157,278.052,91.3053,268.8072,0.00021138,3.078e-05,0.0,0 STARLINK-4217,1 52999U 22076P   23161.40254123  .00003078  00000-0  21138-3 0  9991,2 52999  53.2157 278.0520 0001160  91.3053 268.8072 15.08845815 51859,6917.863,95.437,540.53,538.925,0.0
52999.0,STARLINK-4217,PAYLOAD,2023-06-10 14:25:48,15.08846789,0.0001201,53.2157,277.1597,93.1175,266.9955,0.00028508,4.253e-05,0.0,0 STARLINK-4217,1 52999U 22076P   23161.60126074  .00004253  00000-0  28508-3 0  9990,2 52999  53.2157 277.1597 0001201  93.1175 266.9955 15.08846789 51416,6917.86,95.437,540.555,538.894,0.0
52999.0,STARLINK-4217,PAYLOAD,2023-06-11 07:55:03,15.08841053,0.000115,53.2162,273.8888,94.8039,265.3085,9.3861e-05,1.206e-05,0.0,0 STARLINK-4217,1 52999U 22076P   23162.32990233  .00001206  00000-0  93861-4 0  9996,2 52999  53.2162 273.8888 0001150  94.8039 265.3085 15.08841053 51997,6917.877,95.437,540.538,538.947,0.0
52999.0,STARLINK-4217,PAYLOAD,2023-06-11 14:16:36,15.0884385,0.000106,53.2165,272.7007,84.2785,275.8328,0.00011581,1.556e-05,0.0,0 STARLINK-4217,1 52999U 22076P   23162.59486132  .00001556  00000-0  11581-3 0  9999,2 52999  53.2165 272.7007 0001060  84.2785 275.8328 15.08843850 51568,6917.869,95.437,540.467,539.0,0.0
